{
  "type": "FeatureCollection",
  "features": [
    {
      "type": "Feature",
      "properties": {
        "norad_id": 35606,
        "name": "COSMOS 2251 DEB",
        "group": "cosmos-2251-debris",
        "lat": -10.811445527264608,
        "lon": 172.3453031971619,
        "alt_km": 766.860603854464,
        "timestamp": "2025-12-26T07:29:18.850787+00:00",
        "meta_object_name": "COSMOS 2251 DEB",
        "meta_object_id": "1993-036AMZ",
        "meta_epoch": "2025-12-23T17:40:03.776448",
        "meta_mean_motion": 13.41219482,
        "meta_eccentricity": 0.0456715,
        "meta_inclination": 73.8099,
        "meta_ra_of_asc_node": 353.2688,
        "meta_arg_of_pericenter": 197.3533,
        "meta_mean_anomaly": 161.1513,
        "meta_ephemeris_type": 0,
        "meta_classification_type": "U",
        "meta_norad_cat_id": 35606,
        "meta_element_set_no": 999,
        "meta_rev_at_epoch": 61187,
        "meta_bstar": 0.00021068754,
        "meta_mean_motion_dot": 1.94e-06,
        "meta_mean_motion_ddot": 0,
        "tle_line1": "1 35606U 93036AMZ 25357.73615482  .00000194  00000+0  21069-3 0  9993",
        "tle_line2": "2 35606  73.8099 353.2688 0456715 197.3533 161.1513 13.41219482611878"
      },
      "geometry": {
        "type": "Point",
        "coordinates": [
          172.3453031971619,
          -10.811445527264608
        ]
      }
    },
    {
      "type": "Feature",
      "properties": {
        "norad_id": 35611,
        "name": "COSMOS 2251 DEB",
        "group": "cosmos-2251-debris",
        "lat": -74.00280502877428,
        "lon": 61.23568878579824,
        "alt_km": 647.4635974215735,
        "timestamp": "2025-12-26T07:29:18.850797+00:00",
        "meta_object_name": "COSMOS 2251 DEB",
        "meta_object_id": "1993-036ANE",
        "meta_epoch": "2025-12-19T11:16:40.848672",
        "meta_mean_motion": 14.73020971,
        "meta_eccentricity": 0.0021353,
        "meta_inclination": 74.0189,
        "meta_ra_of_asc_node": 166.1787,
        "meta_arg_of_pericenter": 238.9125,
        "meta_mean_anomaly": 120.9952,
        "meta_ephemeris_type": 0,
        "meta_classification_type": "U",
        "meta_norad_cat_id": 35611,
        "meta_element_set_no": 999,
        "meta_rev_at_epoch": 87389,
        "meta_bstar": 0.0015718,
        "meta_mean_motion_dot": 0.0001012,
        "meta_mean_motion_ddot": 0,
        "tle_line1": "1 35611U 93036ANE 25353.46991723  .00010120  00000+0  15718-2 0  9993",
        "tle_line2": "2 35611  74.0189 166.1787 0021353 238.9125 120.9952 14.73020971873894"
      },
      "geometry": {
        "type": "Point",
        "coordinates": [
          61.23568878579824,
          -74.00280502877428
        ]
      }
    },
    {
      "type": "Feature",
      "properties": {
        "norad_id": 35614,
        "name": "COSMOS 2251 DEB",
        "group": "cosmos-2251-debris",
        "lat": 72.01743446758758,
        "lon": 58.72544405548258,
        "alt_km": 631.5995834778914,
        "timestamp": "2025-12-26T07:29:18.850808+00:00",
        "meta_object_name": "COSMOS 2251 DEB",
        "meta_object_id": "1993-036ANH",
        "meta_epoch": "2025-12-22T04:50:52.701504",
        "meta_mean_motion": 14.67087782,
        "meta_eccentricity": 0.00751415,
        "meta_inclination": 73.9595,
        "meta_ra_of_asc_node": 309.1128,
        "meta_arg_of_pericenter": 161.1452,
        "meta_mean_anomaly": 199.2529,
        "meta_ephemeris_type": 0,
        "meta_classification_type": "U",
        "meta_norad_cat_id": 35614,
        "meta_element_set_no": 999,
        "meta_rev_at_epoch": 87868,
        "meta_bstar": 0.00075496675,
        "meta_mean_motion_dot": 4.392e-05,
        "meta_mean_motion_ddot": 0,
        "tle_line1": "1 35614U 93036ANH 25356.20199886  .00004392  00000+0  75497-3 0  9996",
        "tle_line2": "2 35614  73.9595 309.1128 0075141 161.1452 199.2529 14.67087782878685"
      },
      "geometry": {
        "type": "Point",
        "coordinates": [
          58.72544405548258,
          72.01743446758758
        ]
      }
    },
    {
      "type": "Feature",
      "properties": {
        "norad_id": 35645,
        "name": "COSMOS 2251 DEB",
        "group": "cosmos-2251-debris",
        "lat": -32.81313150656761,
        "lon": -107.00443561166107,
        "alt_km": 695.8460430254736,
        "timestamp": "2025-12-26T07:29:18.850818+00:00",
        "meta_object_name": "COSMOS 2251 DEB",
        "meta_object_id": "1993-036ANL",
        "meta_epoch": "2025-12-25T10:34:11.479296",
        "meta_mean_motion": 14.45753423,
        "meta_eccentricity": 0.0069637,
        "meta_inclination": 73.9639,
        "meta_ra_of_asc_node": 63.9405,
        "meta_arg_of_pericenter": 220.3088,
        "meta_mean_anomaly": 139.2896,
        "meta_ephemeris_type": 0,
        "meta_classification_type": "U",
        "meta_norad_cat_id": 35645,
        "meta_element_set_no": 999,
        "meta_rev_at_epoch": 86955,
        "meta_bstar": 0.0018908,
        "meta_mean_motion_dot": 6.883e-05,
        "meta_mean_motion_ddot": 0,
        "tle_line1": "1 35645U 93036ANL 25359.44041064  .00006883  00000+0  18908-2 0  9993",
        "tle_line2": "2 35645  73.9639  63.9405 0069637 220.3088 139.2896 14.45753423869552"
      },
      "geometry": {
        "type": "Point",
        "coordinates": [
          -107.00443561166107,
          -32.81313150656761
        ]
      }
    },
    {
      "type": "Feature",
      "properties": {
        "norad_id": 35646,
        "name": "COSMOS 2251 DEB",
        "group": "cosmos-2251-debris",
        "lat": 51.0185637573149,
        "lon": 55.44366884948013,
        "alt_km": 1075.4240681023775,
        "timestamp": "2025-12-26T07:29:18.850828+00:00",
        "meta_object_name": "COSMOS 2251 DEB",
        "meta_object_id": "1993-036ANM",
        "meta_epoch": "2025-12-24T19:59:26.255328",
        "meta_mean_motion": 13.40835272,
        "meta_eccentricity": 0.04558466,
        "meta_inclination": 73.8714,
        "meta_ra_of_asc_node": 36.8399,
        "meta_arg_of_pericenter": 144.9794,
        "meta_mean_anomaly": 337.3781,
        "meta_ephemeris_type": 0,
        "meta_classification_type": "U",
        "meta_norad_cat_id": 35646,
        "meta_element_set_no": 999,
        "meta_rev_at_epoch": 82020,
        "meta_bstar": 0.00039650264,
        "meta_mean_motion_dot": 3.84e-06,
        "meta_mean_motion_ddot": 0,
        "tle_line1": "1 35646U 93036ANM 25358.83294277  .00000384  00000+0  39650-3 0  9990",
        "tle_line2": "2 35646  73.8714  36.8399 0455846 144.9794 337.3781 13.40835272820203"
      },
      "geometry": {
        "type": "Point",
        "coordinates": [
          55.44366884948013,
          51.0185637573149
        ]
      }
    },
    {
      "type": "Feature",
      "properties": {
        "norad_id": 35647,
        "name": "COSMOS 2251 DEB",
        "group": "cosmos-2251-debris",
        "lat": -7.123108024025754,
        "lon": 91.37003118764183,
        "alt_km": 782.6746146226487,
        "timestamp": "2025-12-26T07:29:18.850838+00:00",
        "meta_object_name": "COSMOS 2251 DEB",
        "meta_object_id": "1993-036ANN",
        "meta_epoch": "2025-12-24T03:04:08.125248",
        "meta_mean_motion": 14.43689782,
        "meta_eccentricity": 0.00461776,
        "meta_inclination": 74.0232,
        "meta_ra_of_asc_node": 273.3799,
        "meta_arg_of_pericenter": 9.8571,
        "meta_mean_anomaly": 350.348,
        "meta_ephemeris_type": 0,
        "meta_classification_type": "U",
        "meta_norad_cat_id": 35647,
        "meta_element_set_no": 999,
        "meta_rev_at_epoch": 67828,
        "meta_bstar": 0.0007860854,
        "meta_mean_motion_dot": 2.678e-05,
        "meta_mean_motion_ddot": 0,
        "tle_line1": "1 35647U 93036ANN 25358.12787182  .00002678  00000+0  78609-3 0  9990",
        "tle_line2": "2 35647  74.0232 273.3799 0046177   9.8571 350.3480 14.43689782678286"
      },
      "geometry": {
        "type": "Point",
        "coordinates": [
          91.37003118764183,
          -7.123108024025754
        ]
      }
    },
    {
      "type": "Feature",
      "properties": {
        "norad_id": 35650,
        "name": "COSMOS 2251 DEB",
        "group": "cosmos-2251-debris",
        "lat": 21.00012476615708,
        "lon": 165.69605878200204,
        "alt_km": 622.2572673880668,
        "timestamp": "2025-12-26T07:29:18.850848+00:00",
        "meta_object_name": "COSMOS 2251 DEB",
        "meta_object_id": "1993-036ANR",
        "meta_epoch": "2025-12-24T10:09:10.296576",
        "meta_mean_motion": 14.83923288,
        "meta_eccentricity": 0.00151483,
        "meta_inclination": 74.0477,
        "meta_ra_of_asc_node": 355.7395,
        "meta_arg_of_pericenter": 38.3431,
        "meta_mean_anomaly": 112.3443,
        "meta_ephemeris_type": 0,
        "meta_classification_type": "U",
        "meta_norad_cat_id": 35650,
        "meta_element_set_no": 999,
        "meta_rev_at_epoch": 87807,
        "meta_bstar": 0.0020058306,
        "meta_mean_motion_dot": 0.00016711,
        "meta_mean_motion_ddot": 0,
        "tle_line1": "1 35650U 93036ANR 25358.42303584  .00016711  00000+0  20058-2 0  9994",
        "tle_line2": "2 35650  74.0477 355.7395 0015148  38.3431 112.3443 14.83923288878074"
      },
      "geometry": {
        "type": "Point",
        "coordinates": [
          165.69605878200204,
          21.00012476615708
        ]
      }
    }
  ]
}